[{"OBJECT_NAME":"STARLINK-4684","OBJECT_ID":"2022-104H","EPOCH":"2026-03-09T17:58:49.659168","MEAN_MOTION":15.08843486,"ECCENTRICITY":0.00013157,"INCLINATION":53.2166,"RA_OF_ASC_NODE":243.8654,"ARG_OF_PERICENTER":93.7758,"MEAN_ANOMALY":266.3384,"EPHEMERIS_TYPE":0,"CLASSIFICATION_TYPE":"U","NORAD_CAT_ID":53595,"ELEMENT_SET_NO":999,"REV_AT_EPOCH":19595,"BSTAR":2.683072e-5,"MEAN_MOTION_DOT":1.39e-6,"MEAN_MOTION_DDOT":0},{"OBJECT_NAME":"OBJECT M","OBJECT_ID":"2017-042M","EPOCH":"2026-03-09T22:38:39.337440","MEAN_MOTION":15.07991931,"ECCENTRICITY":0.0005117,"INCLINATION":97.4139,"RA_OF_ASC_NODE":234.2602,"ARG_OF_PERICENTER":83.1417,"MEAN_ANOMALY":277.0393,"EPHEMERIS_TYPE":0,"CLASSIFICATION_TYPE":"U","NORAD_CAT_ID":42836,"ELEMENT_SET_NO":999,"REV_AT_EPOCH":47205,"BSTAR":0.00047182615,"MEAN_MOTION_DOT":7.201e-5,"MEAN_MOTION_DDOT":0}]
